STARLINK-32526          
1 62162U 24224Z   26067.33682802  .00047803  00000+0  17346-2 0  9998
2 62162  43.0003 169.1623 0000646 192.8107 167.2729 15.27595722 72223
TRANSPORTER-12 OBJECT AZ
1 62656U 25009AZ  26068.71026235  .00016057  00000+0  54903-3 0  9991
2 62656  97.3981 151.9913 0000987  45.3581 314.7740 15.30349724 63792
